[{"OBJECT_NAME":"KUIPER-00034","OBJECT_ID":"2025-088Z","EPOCH":"2026-03-09T10:36:30.497760","MEAN_MOTION":14.83548331,"ECCENTRICITY":0.00019117,"INCLINATION":51.9015,"RA_OF_ASC_NODE":89.2936,"ARG_OF_PERICENTER":350.8719,"MEAN_ANOMALY":9.221,"EPHEMERIS_TYPE":0,"CLASSIFICATION_TYPE":"U","NORAD_CAT_ID":63747,"ELEMENT_SET_NO":999,"REV_AT_EPOCH":4778,"BSTAR":0.00058284941,"MEAN_MOTION_DOT":4.621e-5,"MEAN_MOTION_DDOT":0},{"OBJECT_NAME":"NOAA 16 DEB","OBJECT_ID":"2000-055H","EPOCH":"2026-03-09T15:17:39.054912","MEAN_MOTION":14.86787566,"ECCENTRICITY":0.00103234,"INCLINATION":98.927,"RA_OF_ASC_NODE":278.6901,"ARG_OF_PERICENTER":0.809,"MEAN_ANOMALY":359.3138,"EPHEMERIS_TYPE":0,"CLASSIFICATION_TYPE":"U","NORAD_CAT_ID":41050,"ELEMENT_SET_NO":999,"REV_AT_EPOCH":53637,"BSTAR":0.0042757384,"MEAN_MOTION_DOT":0.00038264,"MEAN_MOTION_DDOT":0}]
